{
    "links": {
        "self": "http://www.neowsapp.com/rest/v1/neo/54055025?api_key=iIulBulltgU6a56xZRHN4H3l9WmuAYTsLGpBGhQ2"
    },
    "id": "54055025",
    "neo_reference_id": "54055025",
    "name": "(2020 TS)",
    "designation": "2020 TS",
    "nasa_jpl_url": "http://ssd.jpl.nasa.gov/sbdb.cgi?sstr=54055025",
    "absolute_magnitude_h": 24.691,
    "estimated_diameter": {
        "kilometers": {
            "estimated_diameter_min": 0.0306446719,
            "estimated_diameter_max": 0.0685235696
        },
        "meters": {
            "estimated_diameter_min": 30.6446719499,
            "estimated_diameter_max": 68.5235696282
        },
        "miles": {
            "estimated_diameter_min": 0.0190417105,
            "estimated_diameter_max": 0.042578559
        },
        "feet": {
            "estimated_diameter_min": 100.5402655202,
            "estimated_diameter_max": 224.814868179
        }
    },
    "is_potentially_hazardous_asteroid": false,
    "close_approach_data": [
        {
            "close_approach_date": "2017-10-18",
            "close_approach_date_full": "2017-Oct-18 09:20",
            "epoch_date_close_approach": 1508318400000,
            "relative_velocity": {
                "kilometers_per_second": "18.604888781",
                "kilometers_per_hour": "66977.5996116169",
                "miles_per_hour": "41617.2757142294"
            },
            "miss_distance": {
                "astronomical": "0.4496504158",
                "lunar": "174.9140117462",
                "kilometers": "67266744.448294346",
                "miles": "41797616.8189241348"
            },
            "orbiting_body": "Earth"
        },
        {
            "close_approach_date": "2020-10-06",
            "close_approach_date_full": "2020-Oct-06 10:03",
            "epoch_date_close_approach": 1601978580000,
            "relative_velocity": {
                "kilometers_per_second": "17.7338780232",
                "kilometers_per_hour": "63841.9608836489",
                "miles_per_hour": "39668.9117501762"
            },
            "miss_distance": {
                "astronomical": "0.0494209039",
                "lunar": "19.2247316171",
                "kilometers": "7393261.956914693",
                "miles": "4593959.9552730434"
            },
            "orbiting_body": "Earth"
        },
        {
            "close_approach_date": "2021-03-14",
            "close_approach_date_full": "2021-Mar-14 07:57",
            "epoch_date_close_approach": 1615708620000,
            "relative_velocity": {
                "kilometers_per_second": "17.0831885599",
                "kilometers_per_hour": "61499.4788155176",
                "miles_per_hour": "38213.3844895643"
            },
            "miss_distance": {
                "astronomical": "0.3953056603",
                "lunar": "153.7739018567",
                "kilometers": "59136884.779823561",
                "miles": "36745956.2695487018"
            },
            "orbiting_body": "Earth"
        },
        {
            "close_approach_date": "2023-09-21",
            "close_approach_date_full": "2023-Sep-21 09:37",
            "epoch_date_close_approach": 1695289020000,
            "relative_velocity": {
                "kilometers_per_second": "23.5731393997",
                "kilometers_per_hour": "84863.301838794",
                "miles_per_hour": "52730.7555231106"
            },
            "miss_distance": {
                "astronomical": "0.3952976512",
                "lunar": "153.7707863168",
                "kilometers": "59135686.635522944",
                "miles": "36745211.7772028672"
            },
            "orbiting_body": "Earth"
        },
        {
            "close_approach_date": "2024-03-24",
            "close_approach_date_full": "2024-Mar-24 21:37",
            "epoch_date_close_approach": 1711316220000,
            "relative_velocity": {
                "kilometers_per_second": "16.3021090587",
                "kilometers_per_hour": "58687.5926112815",
                "miles_per_hour": "36466.1877533821"
            },
            "miss_distance": {
                "astronomical": "0.431226392",
                "lunar": "167.747066488",
                "kilometers": "64510549.73098504",
                "miles": "40084996.836831952"
            },
            "orbiting_body": "Earth"
        }
    ],
    "orbital_data": {
        "orbit_id": "2",
        "orbit_determination_date": "2020-10-10 07:04:55",
        "first_observation_date": "2020-10-07",
        "last_observation_date": "2020-10-10",
        "data_arc_in_days": 3,
        "observations_used": 40,
        "orbit_uncertainty": "8",
        "minimum_orbit_intersection": ".0434742",
        "jupiter_tisserand_invariant": "4.844",
        "epoch_osculation": "2459130.5",
        "eccentricity": ".2497980755019363",
        "semi_major_axis": "1.290633144380447",
        "inclination": "32.65349987204782",
        "ascending_node_longitude": "11.52540153555481",
        "orbital_period": "535.5532358964778",
        "perihelion_distance": ".9682354687351985",
        "perihelion_argument": "50.89150314424163",
        "aphelion_distance": "1.613030820025695",
        "perihelion_time": "2459174.634277483235",
        "mean_anomaly": "330.3328468039808",
        "mean_motion": ".6722020816425202",
        "equinox": "J2000",
        "orbit_class": {
            "orbit_class_type": "APO",
            "orbit_class_description": "Near-Earth asteroid orbits which cross the Earth’s orbit similar to that of 1862 Apollo",
            "orbit_class_range": "a (semi-major axis) > 1.0 AU; q (perihelion) < 1.017 AU"
        }
    },
    "is_sentry_object": false
}